CCSDS_OMM_VERS = 2.0
CREATION_DATE  = 
ORIGINATOR     = 

OBJECT_NAME    = 1998-067XU
OBJECT_ID      = 1998-067XU
CENTER_NAME    = EARTH
REF_FRAME      = TEME
TIME_SYSTEM    = UTC
MEAN_ELEMENT_THEORY = SGP/SGP4

EPOCH          = 2026-01-23T10:46:08.898240
MEAN_MOTION    = 15.57991789
ECCENTRICITY   = .00032581
INCLINATION    = 51.6283
RA_OF_ASC_NODE = 294.3096
ARG_OF_PERICENTER = 105.8280
MEAN_ANOMALY   = 254.3072

EPHEMERIS_TYPE = 0
CLASSIFICATION_TYPE = U
NORAD_CAT_ID   = 66908
ELEMENT_SET_NO = 999
REV_AT_EPOCH   = 810
BSTAR          = .15486789E-2
MEAN_MOTION_DOT = .119587E-2
MEAN_MOTION_DDOT = 0

CCSDS_OMM_VERS = 2.0
CREATION_DATE  = 
ORIGINATOR     = 

OBJECT_NAME    = SILVERSAT
OBJECT_ID      = 1998-067XV
CENTER_NAME    = EARTH
REF_FRAME      = TEME
TIME_SYSTEM    = UTC
MEAN_ELEMENT_THEORY = SGP/SGP4

EPOCH          = 2026-01-24T00:17:54.627648
MEAN_MOTION    = 15.59109704
ECCENTRICITY   = .0003504
INCLINATION    = 51.6295
RA_OF_ASC_NODE = 291.3241
ARG_OF_PERICENTER = 124.3272
MEAN_ANOMALY   = 235.8052

EPHEMERIS_TYPE = 0
CLASSIFICATION_TYPE = U
NORAD_CAT_ID   = 66909
ELEMENT_SET_NO = 999
REV_AT_EPOCH   = 819
BSTAR          = .18045E-2
MEAN_MOTION_DOT = .145933E-2
MEAN_MOTION_DDOT = 0

CCSDS_OMM_VERS = 2.0
CREATION_DATE  = 
ORIGINATOR     = 

OBJECT_NAME    = 1998-067XW
OBJECT_ID      = 1998-067XW
CENTER_NAME    = EARTH
REF_FRAME      = TEME
TIME_SYSTEM    = UTC
MEAN_ELEMENT_THEORY = SGP/SGP4

EPOCH          = 2026-01-24T00:24:34.796160
MEAN_MOTION    = 15.58387225
ECCENTRICITY   = .0001893
INCLINATION    = 51.6285
RA_OF_ASC_NODE = 291.3519
ARG_OF_PERICENTER = 103.1372
MEAN_ANOMALY   = 256.9832

EPHEMERIS_TYPE = 0
CLASSIFICATION_TYPE = U
NORAD_CAT_ID   = 66910
ELEMENT_SET_NO = 999
REV_AT_EPOCH   = 819
BSTAR          = .15574E-2
MEAN_MOTION_DOT = .1221E-2
MEAN_MOTION_DDOT = 0

CCSDS_OMM_VERS = 2.0
CREATION_DATE  = 
ORIGINATOR     = 

OBJECT_NAME    = 1998-067XX
OBJECT_ID      = 1998-067XX
CENTER_NAME    = EARTH
REF_FRAME      = TEME
TIME_SYSTEM    = UTC
MEAN_ELEMENT_THEORY = SGP/SGP4

EPOCH          = 2026-01-23T23:50:40.228224
MEAN_MOTION    = 15.60118099
ECCENTRICITY   = .0002356
INCLINATION    = 51.6276
RA_OF_ASC_NODE = 291.1946
ARG_OF_PERICENTER = 133.5995
MEAN_ANOMALY   = 226.5193

EPHEMERIS_TYPE = 0
CLASSIFICATION_TYPE = U
NORAD_CAT_ID   = 66911
ELEMENT_SET_NO = 999
REV_AT_EPOCH   = 818
BSTAR          = .18718E-2
MEAN_MOTION_DOT = .157543E-2
MEAN_MOTION_DDOT = 0

CCSDS_OMM_VERS = 2.0
CREATION_DATE  = 
ORIGINATOR     = 

OBJECT_NAME    = 1998-067XY
OBJECT_ID      = 1998-067XY
CENTER_NAME    = EARTH
REF_FRAME      = TEME
TIME_SYSTEM    = UTC
MEAN_ELEMENT_THEORY = SGP/SGP4

EPOCH          = 2026-01-23T00:39:29.176992
MEAN_MOTION    = 15.56115873
ECCENTRICITY   = .0002983
INCLINATION    = 51.6302
RA_OF_ASC_NODE = 296.7470
ARG_OF_PERICENTER = 85.1246
MEAN_ANOMALY   = 275.0086

EPHEMERIS_TYPE = 0
CLASSIFICATION_TYPE = U
NORAD_CAT_ID   = 66912
ELEMENT_SET_NO = 999
REV_AT_EPOCH   = 802
BSTAR          = .98263603E-3
MEAN_MOTION_DOT = .70113E-3
MEAN_MOTION_DDOT = 0

